COSMOS 2084             
1 20663U 90055A   26150.73223625  .00002873  00000+0  20955-3 0  9993
2 20663  62.7913  55.6636 0005842 247.9293 112.1188 15.06036189948678
SL-6 R/B(2)             
1 20666U 90055D   26150.82878220  .00002352  00000+0  18177-3 0  9998
2 20666  62.7838 334.4426 0037847   2.7160 357.4138 15.03936627950543
OKEAN-3                 
1 21397U 91039A   26150.72236175  .00003430  00000+0  23772-3 0  9994
2 21397  82.5181 257.3154 0014924  55.1497 305.1131 15.05243592877379
SL-14 R/B               
1 21423U 91042B   26150.46200425  .00000460  00000+0  55174-4 0  9990
2 21423  82.4915 143.5182 0016293 337.6276  22.4225 14.81889649865185
ERS-1                   
1 21574U 91050A   26150.64887324  .00000448  00000+0  15785-3 0  9994
2 21574  98.7801 170.9178 0031095 320.8400  39.0537 14.39506022827525
ARIANE 40 R/B           
1 21610U 91050F   26150.57460810  .00000383  00000+0  12690-3 0  9994
2 21610  98.1884 199.6764 0003367 162.3563 197.7745 14.42945383830809
INTERCOSMOS 25          
1 21819U 91086A   26150.69732259  .00000931  00000+0  18468-3 0  9994
2 21819  82.6046 260.3935 1484748 300.1464  46.0581 12.12170133506625
SL-8 R/B                
1 21876U 92008B   26150.61992939  .00000057  00000+0  42931-4 0  9999
2 21876  82.9277 206.8484 0033176 265.4709 248.8474 13.75973409720684
SL-8 R/B                
1 21938U 92020B   26150.80626832  .00000037  00000+0  22292-4 0  9995
2 21938  82.9299  92.7665 0030485  69.3658 309.2969 13.75547186712427
USA 81                  
1 21949U 92023A   26150.81075725  .00000201  00000+0  66950-4 0  9992
2 21949  85.0074  84.0350 0002610 100.0963 260.0524 14.32392744106543
