[
    {
        "OBJECT_NAME": "COSMOS 2084",
        "OBJECT_ID": "1990-055A",
        "EPOCH": "2026-05-30T17:34:25.212000",
        "MEAN_MOTION": 15.06036189,
        "ECCENTRICITY": 0.0005842,
        "INCLINATION": 62.7913,
        "RA_OF_ASC_NODE": 55.6636,
        "ARG_OF_PERICENTER": 247.9293,
        "MEAN_ANOMALY": 112.1188,
        "EPHEMERIS_TYPE": 0,
        "CLASSIFICATION_TYPE": "U",
        "NORAD_CAT_ID": 20663,
        "ELEMENT_SET_NO": 999,
        "REV_AT_EPOCH": 94867,
        "BSTAR": 0.00020955,
        "MEAN_MOTION_DOT": 2.873e-05,
        "MEAN_MOTION_DDOT": 0
    },
    {
        "OBJECT_NAME": "SL-6 R/B(2)",
        "OBJECT_ID": "1990-055D",
        "EPOCH": "2026-05-30T19:53:26.782080",
        "MEAN_MOTION": 15.03936627,
        "ECCENTRICITY": 0.0037847,
        "INCLINATION": 62.7838,
        "RA_OF_ASC_NODE": 334.4426,
        "ARG_OF_PERICENTER": 2.716,
        "MEAN_ANOMALY": 357.4138,
        "EPHEMERIS_TYPE": 0,
        "CLASSIFICATION_TYPE": "U",
        "NORAD_CAT_ID": 20666,
        "ELEMENT_SET_NO": 999,
        "REV_AT_EPOCH": 95054,
        "BSTAR": 0.00018177,
        "MEAN_MOTION_DOT": 2.352e-05,
        "MEAN_MOTION_DDOT": 0
    },
    {
        "OBJECT_NAME": "OKEAN-3",
        "OBJECT_ID": "1991-039A",
        "EPOCH": "2026-05-30T17:20:12.055200",
        "MEAN_MOTION": 15.05243592,
        "ECCENTRICITY": 0.0014924,
        "INCLINATION": 82.5181,
        "RA_OF_ASC_NODE": 257.3154,
        "ARG_OF_PERICENTER": 55.1497,
        "MEAN_ANOMALY": 305.1131,
        "EPHEMERIS_TYPE": 0,
        "CLASSIFICATION_TYPE": "U",
        "NORAD_CAT_ID": 21397,
        "ELEMENT_SET_NO": 999,
        "REV_AT_EPOCH": 87737,
        "BSTAR": 0.00023772,
        "MEAN_MOTION_DOT": 3.43e-05,
        "MEAN_MOTION_DDOT": 0
    },
    {
        "OBJECT_NAME": "SL-14 R/B",
        "OBJECT_ID": "1991-042B",
        "EPOCH": "2026-05-30T11:05:17.167200",
        "MEAN_MOTION": 14.81889649,
        "ECCENTRICITY": 0.0016294,
        "INCLINATION": 82.4915,
        "RA_OF_ASC_NODE": 143.5182,
        "ARG_OF_PERICENTER": 337.6276,
        "MEAN_ANOMALY": 22.4225,
        "EPHEMERIS_TYPE": 0,
        "CLASSIFICATION_TYPE": "U",
        "NORAD_CAT_ID": 21423,
        "ELEMENT_SET_NO": 999,
        "REV_AT_EPOCH": 86518,
        "BSTAR": 5.5174e-05,
        "MEAN_MOTION_DOT": 4.6e-06,
        "MEAN_MOTION_DDOT": 0
    },
    {
        "OBJECT_NAME": "ERS-1",
        "OBJECT_ID": "1991-050A",
        "EPOCH": "2026-05-30T15:34:22.647936",
        "MEAN_MOTION": 14.39506022,
        "ECCENTRICITY": 0.0031095,
        "INCLINATION": 98.7801,
        "RA_OF_ASC_NODE": 170.9178,
        "ARG_OF_PERICENTER": 320.84,
        "MEAN_ANOMALY": 39.0537,
        "EPHEMERIS_TYPE": 0,
        "CLASSIFICATION_TYPE": "U",
        "NORAD_CAT_ID": 21574,
        "ELEMENT_SET_NO": 999,
        "REV_AT_EPOCH": 82752,
        "BSTAR": 0.00015785,
        "MEAN_MOTION_DOT": 4.48e-06,
        "MEAN_MOTION_DDOT": 0
    },
    {
        "OBJECT_NAME": "ARIANE 40 R/B",
        "OBJECT_ID": "1991-050F",
        "EPOCH": "2026-05-30T13:47:26.139840",
        "MEAN_MOTION": 14.42945383,
        "ECCENTRICITY": 0.0003367,
        "INCLINATION": 98.1884,
        "RA_OF_ASC_NODE": 199.6764,
        "ARG_OF_PERICENTER": 162.3563,
        "MEAN_ANOMALY": 197.7745,
        "EPHEMERIS_TYPE": 0,
        "CLASSIFICATION_TYPE": "U",
        "NORAD_CAT_ID": 21610,
        "ELEMENT_SET_NO": 999,
        "REV_AT_EPOCH": 83080,
        "BSTAR": 0.0001269,
        "MEAN_MOTION_DOT": 3.83e-06,
        "MEAN_MOTION_DDOT": 0
    },
    {
        "OBJECT_NAME": "INTERCOSMOS 25",
        "OBJECT_ID": "1991-086A",
        "EPOCH": "2026-05-30T16:44:08.671776",
        "MEAN_MOTION": 12.12170133,
        "ECCENTRICITY": 0.1484748,
        "INCLINATION": 82.6046,
        "RA_OF_ASC_NODE": 260.3935,
        "ARG_OF_PERICENTER": 300.1464,
        "MEAN_ANOMALY": 46.0581,
        "EPHEMERIS_TYPE": 0,
        "CLASSIFICATION_TYPE": "U",
        "NORAD_CAT_ID": 21819,
        "ELEMENT_SET_NO": 999,
        "REV_AT_EPOCH": 50662,
        "BSTAR": 0.00018468,
        "MEAN_MOTION_DOT": 9.31e-06,
        "MEAN_MOTION_DDOT": 0
    },
    {
        "OBJECT_NAME": "SL-8 R/B",
        "OBJECT_ID": "1992-008B",
        "EPOCH": "2026-05-30T14:52:41.899296",
        "MEAN_MOTION": 13.75973409,
        "ECCENTRICITY": 0.0033177,
        "INCLINATION": 82.9277,
        "RA_OF_ASC_NODE": 206.8484,
        "ARG_OF_PERICENTER": 265.4709,
        "MEAN_ANOMALY": 248.8474,
        "EPHEMERIS_TYPE": 0,
        "CLASSIFICATION_TYPE": "U",
        "NORAD_CAT_ID": 21876,
        "ELEMENT_SET_NO": 999,
        "REV_AT_EPOCH": 72068,
        "BSTAR": 4.2931e-05,
        "MEAN_MOTION_DOT": 5.7e-07,
        "MEAN_MOTION_DDOT": 0
    },
    {
        "OBJECT_NAME": "SL-8 R/B",
        "OBJECT_ID": "1992-020B",
        "EPOCH": "2026-05-30T19:21:01.582848",
        "MEAN_MOTION": 13.75547186,
        "ECCENTRICITY": 0.0030485,
        "INCLINATION": 82.9299,
        "RA_OF_ASC_NODE": 92.7665,
        "ARG_OF_PERICENTER": 69.3658,
        "MEAN_ANOMALY": 309.2969,
        "EPHEMERIS_TYPE": 0,
        "CLASSIFICATION_TYPE": "U",
        "NORAD_CAT_ID": 21938,
        "ELEMENT_SET_NO": 999,
        "REV_AT_EPOCH": 71242,
        "BSTAR": 2.2292e-05,
        "MEAN_MOTION_DOT": 3.7e-07,
        "MEAN_MOTION_DDOT": 0
    },
    {
        "OBJECT_NAME": "USA 81",
        "OBJECT_ID": "1992-023A",
        "EPOCH": "2026-05-30T19:27:29.426400",
        "MEAN_MOTION": 14.32392744,
        "ECCENTRICITY": 0.000261,
        "INCLINATION": 85.0074,
        "RA_OF_ASC_NODE": 84.035,
        "ARG_OF_PERICENTER": 100.0963,
        "MEAN_ANOMALY": 260.0524,
        "EPHEMERIS_TYPE": 0,
        "CLASSIFICATION_TYPE": "U",
        "NORAD_CAT_ID": 21949,
        "ELEMENT_SET_NO": 999,
        "REV_AT_EPOCH": 10654,
        "BSTAR": 6.695e-05,
        "MEAN_MOTION_DOT": 2.01e-06,
        "MEAN_MOTION_DDOT": 0
    }
]